STARLINK-30374          
1 57809U 23138B   26068.76877028 -.00000468  00000+0 -74695-5 0  9998
2 57809  43.0014 233.4579 0001723 289.6871  70.3794 15.27584414138755
AL MUNTHER              
1 63240U 25052AG  26068.64540749  .00017933  00000+0  65015-3 0  9992
2 63240  97.4001 323.9152 0008027 130.7043 229.4895 15.28381521 54798
